FLOCK 3R-4              
1 43733U 18096Q   21098.86913285  .00006244  00000-0  20997-3 0  9992
2 43733  97.3927 178.6305 0019859 155.8574 267.9388 15.30984616131603
FLOCK 3R-3              
1 43734U 18096R   21098.44333394  .00002508  00000-0  86014-4 0  9996
2 43734  97.3916 178.2792 0020156 157.0260 260.5250 15.30936164131541
CICERO 8                
1 43737U 18096U   21098.81529337  .00004141  00000-0  13856-3 0  9992
2 43737  97.3901 179.0297 0021299 157.0580 203.1618 15.31326886131659
INNOSAT-2               
1 43738U 18096V   21098.89739591  .00004674  00000-0  14902-3 0  9990
2 43738  97.3945 180.6055 0022633 155.3166 295.8573 15.32783355131749
FLOCK 3R-10             
1 43740U 18096X   21098.67369105  .00003581  00000-0  12175-3 0  9995
2 43740  97.3918 178.1379 0016871 151.5959 208.6206 15.30980529131596
FLOCK 3R-6              
1 43741U 18096Y   21098.85583244  .00001897  00000-0  65767-4 0  9992
2 43741  97.3918 178.4348 0017234 152.9819 272.8679 15.30958168131603
FLOCK 3R-7              
1 43742U 18096Z   21098.66973943  .00005442  00000-0  18365-3 0  9992
2 43742  97.3903 178.2580 0017087 153.4872   3.0738 15.30978606131569
REAKTOR HELLO WORLD     
1 43743U 18096AA  21098.80135962  .00001975  00000-0  73644-4 0  9999
2 43743  97.3892 176.8479 0017969 158.5277 201.6720 15.28496931131494
HIBER-1                 
1 43744U 18096AB  21098.64346849  .00003959  00000-0  13921-3 0  9995
2 43744  97.3925 177.5439 0017746 157.8602 202.3408 15.29804170131516
LEMUR-2-DULY            
1 43745U 18096AC  21098.69779032  .00003887  00000-0  13166-3 0  9996
2 43745  97.3946 178.7327 0020057 154.5677 205.6556 15.30991959131608
LEMUR-2-VLADIMIR        
1 43746U 18096AD  21098.64177767  .00004739  00000-0  15893-3 0  9995
2 43746  97.3946 178.7952 0019994 155.1477 205.0731 15.31199408131627
FLOCK 3R-1              
1 43747U 18096AE  21098.68793232  .00007809  00000-0  26185-3 0  9998
2 43747  97.3934 178.5343 0020385 156.2947 203.9238 15.30979005131590
COSMOS 2530             
1 43751U 18097A   21098.74255276 -.00000006  00000-0 -11632-3 0  9997
2 43751  82.5151 318.7780 0018555 211.2815 148.7161 12.42893253106916
COSMOS 2531             
1 43752U 18097B   21098.92907466  .00000010  00000-0  00000-0 0  9990
2 43752  82.5193 319.0205 0015836 229.3689 130.6015 12.42865258106942
COSMOS 2532             
1 43753U 18097C   21098.96121262  .00000009  00000-0 -65709-5 0  9998
2 43753  82.5134 318.6552 0017433 230.9227 129.0302 12.42881404106941
MINXSS-2                
1 43758U 18099A   21098.74137868  .00000899  00000-0  85245-4 0  9992
2 43758  97.6715 171.3667 0013869 282.5760  77.3910 14.95974752128092
SIRION PATHFINDER-2     
1 43759U 18099B   21098.87441731  .00000690  00000-0  67491-4 0  9996
2 43759  97.6693 170.9555 0012633 276.4007  83.5776 14.95468139128088
ELYSIUM STAR 2 & LFF    
1 43760U 18099C   21098.91021650  .00000324  00000-0  33843-4 0  9995
2 43760  97.6747 171.5759 0012240 280.9298  79.0546 14.96178805128117
2018-099D               
1 43761U 18099D   21098.68556245  .00000756  00000-0  73768-4 0  9992
2 43761  97.6706 170.8239 0012629 283.8674  76.1176 14.95268825128049
STPSAT-5                
1 43762U 18099E   21098.86833268  .00000474  00000-0  47067-4 0  9996
2 43762  97.6714 172.0053 0012759 284.9570  75.0238 14.96216832128261
POLAR SCOUT KODIAK      
1 43764U 18099G   21098.78891716  .00000193  00000-0  21855-4 0  9996
2 43764  97.6721 172.5125 0014581 283.9064  76.0536 14.96844929128163
HAWK-A                  
1 43765U 18099H   21098.86362490  .00000282  00000-0  30046-4 0  9999
2 43765  97.6669 171.7653 0013542 289.4562  70.5196 14.96263618128141
SPAWAR-CAL-O            
1 43766U 18099J   21098.90605533  .00000012  00000-0  62569-5 0  9990
2 43766  97.6685 170.1898 0009873 283.1217  76.8902 14.95073218128041
CORVUS BC4              
1 43767U 18099K   21098.85931310  .00000316  00000-0  34180-4 0  9994
2 43767  97.6667 170.0172 0010236 282.0486  77.9588 14.94896429128034
AISTECHSAT 2            
1 43768U 18099L   21098.42244338  .00000351  00000-0  37394-4 0  9994
2 43768  97.6677 169.5474 0009888 285.4400  74.5728 14.94859344127682
FLOCK 3S-1              
1 43769U 18099M   21098.66570666  .00000656  00000-0  64769-4 0  9991
2 43769  97.6674 169.9235 0012567 290.2121  69.7748 14.95226195128021
FOX-1CLIFF (AO-95)      
1 43770U 18099N   21098.85509919  .00000265  00000-0  29234-4 0  9991
2 43770  97.6698 170.5647 0013111 292.2119  67.7711 14.95251812128054
2018-099P               
1 43771U 18099P   21098.63823928  .00000024  00000-0  73123-5 0  9997
2 43771  97.6707 170.4120 0013113 293.3654  66.6187 14.95311162128015
RANGE-A                 
1 43772U 18099Q   21098.16109049  .00000626  00000-0  61593-4 0  9992
2 43772  97.6785 170.7743 0012499 280.7713  79.2101 14.95536617127950
RANGE-B                 
1 43773U 18099R   21098.78898088  .00000227  00000-0  25830-4 0  9990
2 43773  97.6634 169.8913 0012032 278.2341  81.7515 14.95162289128031
HIBER-2                 
1 43774U 18099S   21098.75966787  .00000638  00000-0  62699-4 0  9990
2 43774  97.6754 171.0968 0011072 282.3124  77.6857 14.95523154128044
2018-099T               
1 43775U 18099T   21098.65971136  .00000257  00000-0  28511-4 0  9996
2 43775  97.6702 170.5831 0013140 283.1604  76.8150 14.95238889128024
SPAWAR-CAL-R            
1 43776U 18099U   21098.61499748  .00000528  00000-0  53265-4 0  9992
2 43776  97.6695 170.4346 0013035 283.8243  76.1527 14.95150201128005
LACMA ENOCH             
1 43777U 18099V   21098.16189583  .00029909  00000-0  19188-2 0  9994
2 43777  97.7310 176.7162 0014118 265.4519  94.5096 15.08353221128233
SPAWAR-CAL-OR           
1 43778U 18099W   21098.66830982  .00000749  00000-0  73056-4 0  9993
2 43778  97.6598 169.4684 0012384 288.0457  71.9414 14.95332705127617
2018-099X               
1 43779U 18099X   21098.67239439  .00000583  00000-0  58202-4 0  9997
2 43779  97.6697 170.5363 0013037 283.2688  76.7079 14.95188152128014
MOVE-II                 
1 43780U 18099Y   21098.64312743  .00000205  00000-0  23463-4 0  9998
2 43780  97.6716 170.8142 0012003 289.8288  70.1639 14.95816136128038
SNUSAT-2                
1 43782U 18099AA  21098.89916499  .00000099  00000-0  14095-4 0  9997
2 43782  97.6700 170.9247 0011166 277.3090  82.6861 14.95502185128077
KAZSTSAT                
1 43783U 18099AB  21098.82310547  .00000139  00000-0  18463-4 0  9991
2 43783  97.6812 170.2128 0006652 281.9350  78.1124 14.93633369127929
SNUGLITE                
1 43784U 18099AC  21098.64561841 -.00000004  00000-0  48269-5 0  9997
2 43784  97.6662 170.4215 0013622 286.3382  73.6341 14.95618628128050
ORBWEAVER 2             
1 43785U 18099AD  21098.75924046  .00000980  00000-0  91787-4 0  9994
2 43785  97.6704 170.8691 0011676 272.0163  87.9721 14.96269906127653
ITASAT 1                
1 43786U 18099AE  21098.78817586  .00000136  00000-0  17398-4 0  9997
2 43786  97.6716 171.1286 0013722 284.8947  75.0754 14.95555098128076
KAZSCISAT-1             
1 43787U 18099AF  21098.66548090  .00000866  00000-0  82219-4 0  9990
2 43787  97.6630 170.2224 0012548 281.5950  78.3862 14.95996935128072
EAGLET-I                
1 43790U 18099AJ  21098.63859797 -.00000208  00000-0 -13481-4 0  9997
2 43790  97.6709 171.3661 0012020 290.9689  69.0246 14.95925890127779
CAPELLA-1               
1 43791U 18099AK  21098.82928298  .00005361  00000-0  43866-3 0  9994
2 43791  97.7079 175.5047 0008059 279.7220  80.3093 14.99723339128234
ESEO                    
1 43792U 18099AL  21098.81392523  .00000585  00000-0  57628-4 0  9995
2 43792  97.6677 171.1829 0011680 286.5163  73.4775 14.95712688127852
CSIM-FD                 
1 43793U 18099AM  21098.74278401  .00001162  00000-0  10735-3 0  9995
2 43793  97.6700 171.3897 0011180 280.8033  79.1930 14.96471368127848
HAWK-B                  
1 43794U 18099AN  21098.79713802  .00000289  00000-0  30691-4 0  9993
2 43794  97.6669 171.7002 0013592 289.6154  70.3600 14.96264465128122
ORBWEAVER 1             
1 43795U 18099AP  21098.76092479  .00001213  00000-0  11066-3 0  9993
2 43795  97.6725 171.8386 0011625 285.3606  74.6331 14.96874749128122
THEA                    
1 43796U 18099AQ  21098.75545675  .00000794  00000-0  75336-4 0  9998
2 43796  97.6711 171.6926 0013269 266.8996  93.0707 14.96250228127028
SKYSAT-C12              
1 43797U 18099AR  21098.77711981  .00001980  00000-0  53620-4 0  9996
2 43797  97.1783 170.3324 0001241  51.9786 308.1572 15.38842882130594
ASTROCAST 0.1           
1 43798U 18099AS  21098.79834768  .00000499  00000-0  49427-4 0  9992
2 43798  97.6708 171.6927 0010933 265.7133  94.2839 14.96089827128107
HAWK-C                  
1 43799U 18099AT  21098.79696492  .00000267  00000-0  28758-4 0  9990
2 43799  97.6668 171.6161 0013518 289.5569  70.4192 14.96263809128878
ICEYE-X2                
1 43800U 18099AU  21098.81125117  .00000351  00000-0  36850-4 0  9993
2 43800  97.6695 170.8900 0012676 280.7774  79.2026 14.95486872128068
2018-099AV              
1 43801U 18099AV  21098.79499587  .00000386  00000-0  39458-4 0  9991
2 43801  97.6681 170.9380 0012594 277.3354  82.6436 14.96056933128089
SKYSAT-C13              
1 43802U 18099AW  21098.64800170  .00001463  00000-0  47015-4 0  9995
2 43802  97.2101 169.6736 0005824  59.1977 300.9838 15.33827471130257
JY1SAT (JO-97)          
1 43803U 18099AX  21098.62940769  .00000290  00000-0  31134-4 0  9995
2 43803  97.6684 170.7340 0013509 285.9750  73.9983 14.95790974128056
SUOMI-100               
1 43804U 18099AY  21098.83431105  .00000045  00000-0  91682-5 0  9991
2 43804  97.6679 170.9066 0013656 285.3804  74.5908 14.95765162128094
AL-FARABI 2             
1 43805U 18099AZ  21098.71137710 -.00000282  00000-0 -20024-4 0  9990
2 43805  97.6687 170.9746 0013615 285.6676  74.3032 14.95960423128086
